*******************************************************************************
JPL/HORIZONS                  ATLAS (C/2025 N1)            2025-Oct-10 11:14:35
Rec #:90004917 (+COV) Soln.date: 2025-Oct-10_09:56:25     # obs: 646 (129 days)
 
IAU76/J2000 helio. ecliptic osc. elements (au, days, deg., period=Julian yrs):
 
  EPOCH=  2460884.5 ! 2025-Jul-28.0000000 (TDB)    RMSW= n.a.
   EC= 6.137350157289094   QR= 1.356065570996796   TP= 2460977.9835359612
   OM= 322.1522849649193   W= 128.0116082517727    IN= 175.1128577937168
   A= -.2639620678907299   MA= 40.59784216540879   ADIST= 9.999999E99
   PER= 9.999999E99        N= 7.267612964          ANGMOM= .053516819
   DAN= -3.48217           DDN= 2.02504            L= 194.0393806
   B= 3.8487373            MOID= .363354           TP= 2025-Oct-29.4835359612
 
Comet physical (GM= km^3/s^2; RAD= km):
   GM= n.a.                RAD= n.a.
   M1=  12.3     M2=  n.a.     k1=  4.5    k2= n.a.     PHCOF= n.a.
COMET comments 
1: soln ref.= JPL#27, data arc: 2025-05-15 to 2025-09-21
2: k1=4.5;
*******************************************************************************


*******************************************************************************
Ephemeris / WWW_USER Fri Oct 10 11:14:35 2025 Pasadena, USA      / Horizons    
*******************************************************************************
Target body name: ATLAS (C/2025 N1)               {source: JPL#27}
Center body name: Earth (399)                     {source: DE441}
Center-site name: ATLAS Chile, Rio Hurtado
*******************************************************************************
Start time      : A.D. 2025-Jan-01 00:00:00.0000 UT      
Stop  time      : A.D. 2026-Jan-01 00:00:00.0000 UT      
Step-size       : 1440 minutes
*******************************************************************************
Target pole/equ : undefined
Target radii    : undefined                                                    
Center geodetic : 289.235, -30.4709774, 1.60227   {E-lon(deg),Lat(deg),Alt(km)}
Center cylindric: 289.235,5503.34663,-3216.29438  {E-lon(deg),Dxy(km),Dz(km)}
Center pole/equ : ITRF93                          {East-longitude positive}
Center radii    : 6378.137, 6378.137, 6356.752 km {Equator_a, b, pole_c}       
Target primary  : Sun
Vis. interferer : MOON (R_eq= 1737.400) km        {source: DE441}
Rel. light bend : Sun                             {source: DE441}
Rel. lght bnd GM: 1.3271E+11 km^3/s^2                                          
Small-body perts: Yes                             {source: SB441-N16}
Atmos refraction: NO (AIRLESS)
RA format       : HMS
Time format     : CAL 
Calendar mode   : Mixed Julian/Gregorian
EOP file        : eop.251009.p260105                                           
EOP coverage    : DATA-BASED 1962-JAN-20 TO 2025-OCT-09. PREDICTS-> 2026-JAN-04
Units conversion: 1 au= 149597870.700 km, c= 299792.458 km/s, 1 day= 86400.0 s 
Table cut-offs 1: Elevation (-90.0deg=NO ),Airmass (>38.000=NO), Daylight (NO )
Table cut-offs 2: Solar elongation (  0.0,180.0=NO ),Local Hour Angle( 0.0=NO )
Table cut-offs 3: RA/DEC angular rate (     0.0=NO )                           
Table format    : Comma Separated Values (spreadsheet)
*******************************************************************************
Initial IAU76/J2000 heliocentric ecliptic osculating elements (au, days, deg.):
  EPOCH=  2460884.5 ! 2025-Jul-28.0000000 (TDB)    RMSW= n.a.                  
   EC= 6.137350157289094   QR= 1.356065570996796   TP= 2460977.9835359612      
   OM= 322.1522849649193   W= 128.0116082517727    IN= 175.1128577937168       
  Equivalent ICRF heliocentric cartesian coordinates (au, au/d):
   X=-9.927233344029041E-02  Y=-3.412582681072442E+00  Z=-1.208085018027772E+00
  VX=-1.385685492290884E-02 VY= 3.089107600479588E-02 VZ= 1.175545369890605E-02
Comet physical (GM= km^3/s^2; RAD= km):                                        
   GM= n.a.                RAD= n.a.                                           
   M1=  12.3     M2=  n.a.     k1=  4.5    k2= n.a.     PHCOF= n.a.            
***************************************************************************************************************************************************************************************************************************************************************************************************************************************************************************
 Date__(UT)__HR:MN, , , R.A._(ICRF), DEC__(ICRF),  R.A.__(a-app), DEC_(a-app),  dRA*cosD, d(DEC)/dt, Azi_(a-app), Elev_(a-app),  a-mass, mag_ex,    T-mag,  N-mag,      Illu%,                r,       rdot,             delta,     deldot,     S-O-T,/r,     S-T-O,    PsAng,   PsAMV,      GlxLon,    GlxLat,  Sky_motion, Sky_mot_PA, RelVel-ANG,  Lun_Sky_Brt, sky_SNR,
***************************************************************************************************************************************************************************************************************************************************************************************************************************************************************************
$$SOE
 2025-Dec-05 00:00,C,m, 11 47 00.11, +01 46 30.2,    11 48 19.82, +01 37 52.0,  -142.276,  51.06892,  167.304876,   -60.566730,    n.a.,   n.a.,   14.913,   n.a.,   93.17353,   1.898705083400, 43.7434744,  1.87068939703844,-16.2316852,   76.4176,/L,   30.2901,  293.476, 109.850,  268.873455, 60.314310,   2.5194001,  289.74520,  -15.90179,         n.a.,    n.a.,
 2025-Dec-06 00:00,C, , 11 43 08.60, +02 07 05.9,    11 44 28.42, +01 58 28.0,  -144.793,  51.96431,  163.287171,   -60.475142,    n.a.,   n.a.,   14.928,   n.a.,   93.25450,   1.924136173172, 44.3134551,  1.86156730424346,-15.4501751,   78.4527,/L,   30.1058,  293.423, 109.814,  266.852718, 60.115993,   2.5639208,  289.74241,  -14.99061,         n.a.,    n.a.,
 2025-Dec-07 00:00,C, , 11 39 13.02, +02 28 02.6,    11 40 32.94, +02 19 25.2,  -147.295,  52.83459,  159.270803,   -60.266547,    n.a.,   n.a.,   14.944,   n.a.,   93.35231,   1.949889391624, 44.8593348,  1.85291919450715,-14.6173121,   80.5060,/L,   29.8818,  293.366, 109.772,  264.823452, 59.883558,   2.6080682,  289.73288,  -14.04784,         n.a.,    n.a.,
 2025-Dec-08 00:00,C, , 11 35 13.38, +02 49 19.6,    11 36 33.42, +02 40 42.8,  -149.773,  53.67479,  155.284106,   -59.940642,    n.a.,   n.a.,   14.961,   n.a.,   93.46626,   1.975951106474, 45.3821274,  1.84477487758967,-13.7326308,   82.5771,/L,   29.6189,  293.307, 109.723,  262.790529, 59.616198,   2.6516762,  289.71635,  -13.07398,         n.a.,    n.a.,
 2025-Dec-09 00:00,C, , 11 31 09.73, +03 10 56.1,    11 32 29.89, +03 02 20.1,  -152.218,  54.47967,  151.353855,   -59.498550,    n.a.,   n.a.,   14.978,   n.a.,   93.59558,   2.002308262641, 45.8828175,  1.83716440209469,-12.7957355,   84.6658,/L,   29.3179,  293.244, 109.667,  260.758909, 59.313272,   2.6945659,  289.69253,  -12.06954,         n.a.,    n.a.,
 2025-Dec-10 00:00,C, , 11 27 02.11, +03 32 51.2,    11 28 22.40, +03 24 16.2,  -154.620,  55.24369,  147.504128,   -58.942723,    n.a.,   n.a.,   14.995,   n.a.,   93.73941,   2.028948364994, 46.3623594,  1.83011799823851,-11.8063560,   86.7718,/L,   28.9797,  293.178, 109.603,  258.733564, 58.974312,   2.7365464,  289.66112,  -11.03511,         n.a.,    n.a.,
 2025-Dec-11 00:00,C, , 11 22 50.59, +03 55 03.7,    11 24 11.01, +03 46 30.0,  -156.968,  55.96115,  143.755460,   -58.276788,    n.a.,   n.a.,   15.013,   n.a.,   93.89683,   2.055859460345, 46.8216756,  1.82366599045563,-10.7643950,   88.8947,/L,   28.6054,  293.108, 109.532,  256.719411, 58.599045,   2.7774156,  289.62184,  -9.971376,         n.a.,    n.a.,
 2025-Dec-12 00:00,C, , 11 18 35.25, +04 17 32.6,    11 19 55.81, +04 09 00.3,  -159.250,  56.62620,  140.124331,   -57.505350,    n.a.,   n.a.,   15.032,   n.a.,   94.06685,   2.083030118929, 47.2616561,  1.81783868682940, -9.6699605,   91.0339,/L,   28.1960,  293.034, 109.453,  254.721239, 58.187392,   2.8169630,  289.57442,  -8.879104,         n.a.,    n.a.,
 2025-Dec-13 00:00,C, , 11 14 16.19, +04 40 16.3,    11 15 36.91, +04 31 45.8,  -161.454,  57.23297,  136.623006,   -56.633776,    n.a.,   n.a.,   15.051,   n.a.,   94.24841,   2.110449415587, 47.6831581,  1.81266625361324, -8.5233857,   93.1888,/L,   27.7527,  292.955, 109.365,  252.743642, 57.739480,   2.8549717,  289.51860,  -7.759181,         n.a.,    n.a.,
 2025-Dec-14 00:00,C, , 11 09 53.55, +05 03 13.6,    11 11 14.42, +04 54 44.9,  -163.569,  57.77565,  133.259674,   -55.667975,    n.a.,   n.a.,   15.071,   n.a.,   94.44042,   2.138106910816, 48.0870059,  1.80817858130816, -7.3252395,   95.3588,/L,   27.2766,  292.872, 109.269,  250.790965, 57.255644,   2.8912209,  289.45414,  -6.612593,         n.a.,    n.a.,
 2025-Dec-15 00:00,C, , 11 05 27.44, +05 26 22.6,    11 06 48.49, +05 17 56.0,  -165.583,  58.24857,  130.038804,   -54.614196,    n.a.,   n.a.,   15.092,   n.a.,   94.64170,   2.165992631850, 48.4739914,  1.80440514622209, -6.0763325,   97.5431,/L,   26.7692,  292.785, 109.165,  248.867245, 56.736421,   2.9254886,  289.38081,  -5.440421,         n.a.,    n.a.,
 2025-Dec-16 00:00,C, , 11 00 58.04, +05 49 41.7,    11 02 19.27, +05 41 17.4,  -167.482,  58.64630,  126.961647,   -53.478856,    n.a.,   n.a.,   15.114,   n.a.,   94.85106,   2.194097053885, 48.8448737,  1.80137486944784, -4.7777204,   99.7408,/L,   26.2317,  292.693, 109.051,  246.976176, 56.182555,   2.9575537,  289.29845,  -4.243840,         n.a.,    n.a.,
 2025-Dec-17 00:00,C, , 10 56 25.53, +06 13 09.0,    10 57 46.95, +06 04 47.2,  -169.255,  58.96372,  124.026803,   -52.268396,    n.a.,   n.a.,   15.136,   n.a.,   95.06728,   2.222411081565, 49.2003803,  1.79911597406834, -3.4307072,  101.9509,/L,   25.6657,  292.597, 108.928,  245.121070, 55.594982,   2.9871988,  289.20688,  -3.024110,         n.a.,    n.a.,
